{"fetched_at":"2026-03-27T07:04:08Z","count":10282,"tles":[{"name":"SL-3 R/B","line1":"1 13154U 82039B   26085.48680497  .00002468  00000+0  14843-3 0  9995","line2":"2 13154  81.1570 196.5945 0028783 269.0264  90.7664 15.10171878384178","category":"Other"},{"name":"SL-8 R/B","line1":"1 11574U 79089B   26085.39171039  .00000259  00000+0  86231-4 0  9994","line2":"2 11574  74.0682  60.1227 0016832 230.7384 129.2280 14.42360075438519","category":"Other"},{"name":"SL-3 R/B","line1":"1 12465U 81046B   26085.45937380  .00011151  00000+0  25593-3 0  9992","line2":"2 12465  81.2288 269.5969 0018342 323.0983  36.8996 15.42394627441015","category":"Other"},{"name":"SL-3 R/B","line1":"1 10114U 77057B   26085.48570905  .00013179  00000+0  27215-3 0  9992","line2":"2 10114  97.5797 258.1539 0006630 213.8996 146.1830 15.45961118670927","category":"Other"},{"name":"SL-3 R/B","line1":"1 13068U 82013B   26085.47817196  .00003555  00000+0  15269-3 0  9999","line2":"2 13068  81.1743 141.0932 0023432 122.2707 238.0800 15.22165662406905","category":"Other"},{"name":"SL-14 R/B","line1":"1 11267U 79011B   26085.41490760  .00000674  00000+0  64024-4 0  9993","line2":"2 11267  82.5207  80.6949 0016176   7.6003 352.5458 14.91928645531275","category":"Other"},{"name":"SL-3 R/B","line1":"1 12904U 81103B   26085.54263721  .00004682  00000+0  20617-3 0  9998","line2":"2 12904  81.1604 193.6630 0012689 226.2615 133.7566 15.21571372975798","category":"Other"},{"name":"SEASAT 1","line1":"1 10967U 78064A   26085.44322999  .00000252  00000+0  10883-3 0  9992","line2":"2 10967 108.0080 160.6530 0002588 277.6759  82.4092 14.46173607508938","category":"Other"},{"name":"SL-8 R/B","line1":"1 12139U 81003B   26085.48726602  .00021371  00000+0  53669-3 0  9999","line2":"2 12139  82.9344 274.4826 0261106 120.1697 242.5682 15.11694938317213","category":"Other"},{"name":"ATLAS CENTAUR R/B","line1":"1 06155U 72065B   26085.31458556  .00001327  00000+0  18362-3 0  9990","line2":"2 06155  35.0006 208.3204 0033165 151.0162 209.2387 14.77732108843721","category":"Other"},{"name":"SL-8 R/B","line1":"1 08459U 75112B   26085.47548767  .00000225  00000+0  82502-4 0  9990","line2":"2 08459  74.0631 348.0367 0014517  74.2945 285.9810 14.38213264634289","category":"Other"},{"name":"SL-14 R/B","line1":"1 11672U 80005B   26085.03627040  .00000530  00000+0  50984-4 0  9990","line2":"2 11672  82.5115 291.7272 0017200 107.3287 252.9815 14.90947880478921","category":"Other"}]}