CCSDS_OMM_VERS = 2.0
CREATION_DATE  = 
ORIGINATOR     = 

OBJECT_NAME    = ATLAS CENTAUR R/B
OBJECT_ID      = 1972-065B
CENTER_NAME    = EARTH
REF_FRAME      = TEME
TIME_SYSTEM    = UTC
MEAN_ELEMENT_THEORY = SGP/SGP4

EPOCH          = 2026-03-26T07:33:00.192384
MEAN_MOTION    = 14.77732108
ECCENTRICITY   = .0033165
INCLINATION    = 35.0006
RA_OF_ASC_NODE = 208.3204
ARG_OF_PERICENTER = 151.0162
MEAN_ANOMALY   = 209.2387

EPHEMERIS_TYPE = 0
CLASSIFICATION_TYPE = U
NORAD_CAT_ID   = 6155
ELEMENT_SET_NO = 999
REV_AT_EPOCH   = 84372
BSTAR          = .18362E-3
MEAN_MOTION_DOT = .1327E-4
MEAN_MOTION_DDOT = 0

CCSDS_OMM_VERS = 2.0
CREATION_DATE  = 
ORIGINATOR     = 

OBJECT_NAME    = SL-8 R/B
OBJECT_ID      = 1975-112B
CENTER_NAME    = EARTH
REF_FRAME      = TEME
TIME_SYSTEM    = UTC
MEAN_ELEMENT_THEORY = SGP/SGP4

EPOCH          = 2026-03-26T11:24:42.134688
MEAN_MOTION    = 14.38213264
ECCENTRICITY   = .0014517
INCLINATION    = 74.0631
RA_OF_ASC_NODE = 348.0367
ARG_OF_PERICENTER = 74.2945
MEAN_ANOMALY   = 285.9810

EPHEMERIS_TYPE = 0
CLASSIFICATION_TYPE = U
NORAD_CAT_ID   = 8459
ELEMENT_SET_NO = 999
REV_AT_EPOCH   = 63428
BSTAR          = .82502E-4
MEAN_MOTION_DOT = .225E-5
MEAN_MOTION_DDOT = 0

CCSDS_OMM_VERS = 2.0
CREATION_DATE  = 
ORIGINATOR     = 

OBJECT_NAME    = SL-3 R/B
OBJECT_ID      = 1977-057B
CENTER_NAME    = EARTH
REF_FRAME      = TEME
TIME_SYSTEM    = UTC
MEAN_ELEMENT_THEORY = SGP/SGP4

EPOCH          = 2026-03-26T11:39:25.261920
MEAN_MOTION    = 15.45961118
ECCENTRICITY   = .000663
INCLINATION    = 97.5797
RA_OF_ASC_NODE = 258.1539
ARG_OF_PERICENTER = 213.8996
MEAN_ANOMALY   = 146.1830

EPHEMERIS_TYPE = 0
CLASSIFICATION_TYPE = U
NORAD_CAT_ID   = 10114
ELEMENT_SET_NO = 999
REV_AT_EPOCH   = 67092
BSTAR          = .27215E-3
MEAN_MOTION_DOT = .13179E-3
MEAN_MOTION_DDOT = 0

CCSDS_OMM_VERS = 2.0
CREATION_DATE  = 
ORIGINATOR     = 

OBJECT_NAME    = SEASAT 1
OBJECT_ID      = 1978-064A
CENTER_NAME    = EARTH
REF_FRAME      = TEME
TIME_SYSTEM    = UTC
MEAN_ELEMENT_THEORY = SGP/SGP4

EPOCH          = 2026-03-26T10:38:15.071136
MEAN_MOTION    = 14.46173607
ECCENTRICITY   = .0002588
INCLINATION    = 108.0080
RA_OF_ASC_NODE = 160.6530
ARG_OF_PERICENTER = 277.6759
MEAN_ANOMALY   = 82.4092

EPHEMERIS_TYPE = 0
CLASSIFICATION_TYPE = U
NORAD_CAT_ID   = 10967
ELEMENT_SET_NO = 999
REV_AT_EPOCH   = 50893
BSTAR          = .10883E-3
MEAN_MOTION_DOT = .252E-5
MEAN_MOTION_DDOT = 0

CCSDS_OMM_VERS = 2.0
CREATION_DATE  = 
ORIGINATOR     = 

OBJECT_NAME    = SL-14 R/B
OBJECT_ID      = 1979-011B
CENTER_NAME    = EARTH
REF_FRAME      = TEME
TIME_SYSTEM    = UTC
MEAN_ELEMENT_THEORY = SGP/SGP4

EPOCH          = 2026-03-26T09:57:28.016640
MEAN_MOTION    = 14.91928645
ECCENTRICITY   = .0016176
INCLINATION    = 82.5207
RA_OF_ASC_NODE = 80.6949
ARG_OF_PERICENTER = 7.6003
MEAN_ANOMALY   = 352.5458

EPHEMERIS_TYPE = 0
CLASSIFICATION_TYPE = U
NORAD_CAT_ID   = 11267
ELEMENT_SET_NO = 999
REV_AT_EPOCH   = 53127
BSTAR          = .64024E-4
MEAN_MOTION_DOT = .674E-5
MEAN_MOTION_DDOT = 0

CCSDS_OMM_VERS = 2.0
CREATION_DATE  = 
ORIGINATOR     = 

OBJECT_NAME    = SL-8 R/B
OBJECT_ID      = 1979-089B
CENTER_NAME    = EARTH
REF_FRAME      = TEME
TIME_SYSTEM    = UTC
MEAN_ELEMENT_THEORY = SGP/SGP4

EPOCH          = 2026-03-26T09:24:03.777696
MEAN_MOTION    = 14.42360075
ECCENTRICITY   = .0016832
INCLINATION    = 74.0682
RA_OF_ASC_NODE = 60.1227
ARG_OF_PERICENTER = 230.7384
MEAN_ANOMALY   = 129.2280

EPHEMERIS_TYPE = 0
CLASSIFICATION_TYPE = U
NORAD_CAT_ID   = 11574
ELEMENT_SET_NO = 999
REV_AT_EPOCH   = 43851
BSTAR          = .86231E-4
MEAN_MOTION_DOT = .259E-5
MEAN_MOTION_DDOT = 0

CCSDS_OMM_VERS = 2.0
CREATION_DATE  = 
ORIGINATOR     = 

OBJECT_NAME    = SL-14 R/B
OBJECT_ID      = 1980-005B
CENTER_NAME    = EARTH
REF_FRAME      = TEME
TIME_SYSTEM    = UTC
MEAN_ELEMENT_THEORY = SGP/SGP4

EPOCH          = 2026-03-26T00:52:13.762560
MEAN_MOTION    = 14.90947880
ECCENTRICITY   = .00172004
INCLINATION    = 82.5115
RA_OF_ASC_NODE = 291.7272
ARG_OF_PERICENTER = 107.3287
MEAN_ANOMALY   = 252.9815

EPHEMERIS_TYPE = 0
CLASSIFICATION_TYPE = U
NORAD_CAT_ID   = 11672
ELEMENT_SET_NO = 999
REV_AT_EPOCH   = 47892
BSTAR          = .50984077E-4
MEAN_MOTION_DOT = .53E-5
MEAN_MOTION_DDOT = 0

CCSDS_OMM_VERS = 2.0
CREATION_DATE  = 
ORIGINATOR     = 

OBJECT_NAME    = SL-8 R/B
OBJECT_ID      = 1981-003B
CENTER_NAME    = EARTH
REF_FRAME      = TEME
TIME_SYSTEM    = UTC
MEAN_ELEMENT_THEORY = SGP/SGP4

EPOCH          = 2026-03-26T11:41:39.784128
MEAN_MOTION    = 15.11694938
ECCENTRICITY   = .0261106
INCLINATION    = 82.9344
RA_OF_ASC_NODE = 274.4826
ARG_OF_PERICENTER = 120.1697
MEAN_ANOMALY   = 242.5682

EPHEMERIS_TYPE = 0
CLASSIFICATION_TYPE = U
NORAD_CAT_ID   = 12139
ELEMENT_SET_NO = 999
REV_AT_EPOCH   = 31721
BSTAR          = .53669E-3
MEAN_MOTION_DOT = .21371E-3
MEAN_MOTION_DDOT = 0

CCSDS_OMM_VERS = 2.0
CREATION_DATE  = 
ORIGINATOR     = 

OBJECT_NAME    = SL-3 R/B
OBJECT_ID      = 1981-046B
CENTER_NAME    = EARTH
REF_FRAME      = TEME
TIME_SYSTEM    = UTC
MEAN_ELEMENT_THEORY = SGP/SGP4

EPOCH          = 2026-03-26T11:01:29.896320
MEAN_MOTION    = 15.42394627
ECCENTRICITY   = .0018342
INCLINATION    = 81.2288
RA_OF_ASC_NODE = 269.5969
ARG_OF_PERICENTER = 323.0983
MEAN_ANOMALY   = 36.8996

EPHEMERIS_TYPE = 0
CLASSIFICATION_TYPE = U
NORAD_CAT_ID   = 12465
ELEMENT_SET_NO = 999
REV_AT_EPOCH   = 44101
BSTAR          = .25593E-3
MEAN_MOTION_DOT = .11151E-3
MEAN_MOTION_DDOT = 0

CCSDS_OMM_VERS = 2.0
CREATION_DATE  = 
ORIGINATOR     = 

OBJECT_NAME    = SL-3 R/B
OBJECT_ID      = 1981-103B
CENTER_NAME    = EARTH
REF_FRAME      = TEME
TIME_SYSTEM    = UTC
MEAN_ELEMENT_THEORY = SGP/SGP4

EPOCH          = 2026-03-26T13:01:23.854944
MEAN_MOTION    = 15.21571372
ECCENTRICITY   = .0012689
INCLINATION    = 81.1604
RA_OF_ASC_NODE = 193.6630
ARG_OF_PERICENTER = 226.2615
MEAN_ANOMALY   = 133.7566

EPHEMERIS_TYPE = 0
CLASSIFICATION_TYPE = U
NORAD_CAT_ID   = 12904
ELEMENT_SET_NO = 999
REV_AT_EPOCH   = 97579
BSTAR          = .20617E-3
MEAN_MOTION_DOT = .4682E-4
MEAN_MOTION_DDOT = 0

CCSDS_OMM_VERS = 2.0
CREATION_DATE  = 
ORIGINATOR     = 

OBJECT_NAME    = SL-3 R/B
OBJECT_ID      = 1982-013B
CENTER_NAME    = EARTH
REF_FRAME      = TEME
TIME_SYSTEM    = UTC
MEAN_ELEMENT_THEORY = SGP/SGP4

EPOCH          = 2026-03-26T11:28:34.057344
MEAN_MOTION    = 15.22165662
ECCENTRICITY   = .0023432
INCLINATION    = 81.1743
RA_OF_ASC_NODE = 141.0932
ARG_OF_PERICENTER = 122.2707
MEAN_ANOMALY   = 238.0800

EPHEMERIS_TYPE = 0
CLASSIFICATION_TYPE = U
NORAD_CAT_ID   = 13068
ELEMENT_SET_NO = 999
REV_AT_EPOCH   = 40690
BSTAR          = .15269E-3
MEAN_MOTION_DOT = .3555E-4
MEAN_MOTION_DDOT = 0

CCSDS_OMM_VERS = 2.0
CREATION_DATE  = 
ORIGINATOR     = 

OBJECT_NAME    = SL-3 R/B
OBJECT_ID      = 1982-039B
CENTER_NAME    = EARTH
REF_FRAME      = TEME
TIME_SYSTEM    = UTC
MEAN_ELEMENT_THEORY = SGP/SGP4

EPOCH          = 2026-03-26T11:40:59.949408
MEAN_MOTION    = 15.10171878
ECCENTRICITY   = .0028783
INCLINATION    = 81.1570
RA_OF_ASC_NODE = 196.5945
ARG_OF_PERICENTER = 269.0264
MEAN_ANOMALY   = 90.7664

EPHEMERIS_TYPE = 0
CLASSIFICATION_TYPE = U
NORAD_CAT_ID   = 13154
ELEMENT_SET_NO = 999
REV_AT_EPOCH   = 38417
BSTAR          = .14843E-3
MEAN_MOTION_DOT = .2468E-4
MEAN_MOTION_DDOT = 0

